[
    {
        "Altitude(m)": 705677.1772616345,
        "Argument of Periapsis(deg)": 0.0,
        "Eccentricity": 0.0,
        "Inclination(deg)": 45.0,
        "Latitude(deg)": -11.613192951875988,
        "Longitude(deg)": 46.825561054192995,
        "Mean Anomaly(deg)": -163.63640000000007,
        "RAAN(deg)": 315.0,
        "Satellite Name": "Constellation 1 1398",
        "Satellite Number": 1398,
        "Semi-Major Axis(m)": 7083131.272910544,
        "Time(s)": 0
    },
    {
        "Altitude(m)": 705687.84165584,
        "Argument of Periapsis(deg)": 5.994800624540561e-05,
        "Eccentricity": 0.0,
        "Inclination(deg)": 45.0,
        "Latitude(deg)": -11.655453139758476,
        "Longitude(deg)": 46.866090410964716,
        "Mean Anomaly(deg)": -163.5756988597501,
        "RAAN(deg)": 314.9999434108344,
        "Satellite Name": "Constellation 1 1398",
        "Satellite Number": 1398,
        "Semi-Major Axis(m)": 7083131.272910544,
        "Time(s)": 1
    },
    {
        "Altitude(m)": 705698.5216201451,
        "Argument of Periapsis(deg)": 0.00011989601249081122,
        "Eccentricity": 0.0,
        "Inclination(deg)": 45.0,
        "Latitude(deg)": -11.697706187240595,
        "Longitude(deg)": 46.90663315938423,
        "Mean Anomaly(deg)": -163.51499771950017,
        "RAAN(deg)": 314.9998868216689,
        "Satellite Name": "Constellation 1 1398",
        "Satellite Number": 1398,
        "Semi-Major Axis(m)": 7083131.272910544,
        "Time(s)": 2
    },
    {
        "Altitude(m)": 705709.21712441,
        "Argument of Periapsis(deg)": 0.00017984401873621686,
        "Eccentricity": 0.0,
        "Inclination(deg)": 45.0,
        "Latitude(deg)": -11.739952066029861,
        "Longitude(deg)": 46.94718935143636,
        "Mean Anomaly(deg)": -163.45429657925035,
        "RAAN(deg)": 314.99983023250326,
        "Satellite Name": "Constellation 1 1398",
        "Satellite Number": 1398,
        "Semi-Major Axis(m)": 7083131.272910544,
        "Time(s)": 3
    },
    {
        "Altitude(m)": 705719.9281384313,
        "Argument of Periapsis(deg)": 0.00023979202498162244,
        "Eccentricity": 0.0,
        "Inclination(deg)": 45.0,
        "Latitude(deg)": -11.782190747808496,
        "Longitude(deg)": 46.98775903913225,
        "Mean Anomaly(deg)": -163.39359543900042,
        "RAAN(deg)": 314.99977364333773,
        "Satellite Name": "Constellation 1 1398",
        "Satellite Number": 1398,
        "Semi-Major Axis(m)": 7083131.272910544,
        "Time(s)": 4
    },
    {
        "Altitude(m)": 705730.6546319126,
        "Argument of Periapsis(deg)": 0.00029974003122702807,
        "Eccentricity": 0.0,
        "Inclination(deg)": 45.0,
        "Latitude(deg)": -11.824422204232711,
        "Longitude(deg)": 47.02834227450829,
        "Mean Anomaly(deg)": -163.33289429875055,
        "RAAN(deg)": 314.99971705417215,
        "Satellite Name": "Constellation 1 1398",
        "Satellite Number": 1398,
        "Semi-Major Axis(m)": 7083131.272910544,
        "Time(s)": 5
    },
    {
        "Altitude(m)": 705741.396574498,
        "Argument of Periapsis(deg)": 0.00035968803747243373,
        "Eccentricity": 0.0,
        "Inclination(deg)": 45.0,
        "Latitude(deg)": -11.866646406933082,
        "Longitude(deg)": 47.06893910962703,
        "Mean Anomaly(deg)": -163.2721931585006,
        "RAAN(deg)": 314.9996604650066,
        "Satellite Name": "Constellation 1 1398",
        "Satellite Number": 1398,
        "Semi-Major Axis(m)": 7083131.272910544,
        "Time(s)": 6
    },
    {
        "Altitude(m)": 705752.1539357472,
        "Argument of Periapsis(deg)": 0.00041963604371783933,
        "Eccentricity": 0.0,
        "Inclination(deg)": 45.0,
        "Latitude(deg)": -11.908863327514338,
        "Longitude(deg)": 47.10954942847973,
        "Mean Anomaly(deg)": -163.21149201825077,
        "RAAN(deg)": 314.99960387584105,
        "Satellite Name": "Constellation 1 1398",
        "Satellite Number": 1398,
        "Semi-Major Axis(m)": 7083131.272910544,
        "Time(s)": 7
    },
    {
        "Altitude(m)": 705762.9266851471,
        "Argument of Periapsis(deg)": 0.0004795840499632449,
        "Eccentricity": 0.0,
        "Inclination(deg)": 45.0,
        "Latitude(deg)": -11.951072937554677,
        "Longitude(deg)": 47.15017361937478,
        "Mean Anomaly(deg)": -163.15079087800078,
        "RAAN(deg)": 314.9995472866754,
        "Satellite Name": "Constellation 1 1398",
        "Satellite Number": 1398,
        "Semi-Major Axis(m)": 7083131.272910544,
        "Time(s)": 8
    },
    {
        "Altitude(m)": 705773.7147921098,
        "Argument of Periapsis(deg)": 0.0005395320562086505,
        "Eccentricity": 0.0,
        "Inclination(deg)": 45.0,
        "Latitude(deg)": -11.993275208606615,
        "Longitude(deg)": 47.190811566355535,
        "Mean Anomaly(deg)": -163.0900897377509,
        "RAAN(deg)": 314.9994906975099,
        "Satellite Name": "Constellation 1 1398",
        "Satellite Number": 1398,
        "Semi-Major Axis(m)": 7083131.272910544,
        "Time(s)": 9
    },
    {
        "Altitude(m)": 705784.5182259718,
        "Argument of Periapsis(deg)": 0.0005994800624540561,
        "Eccentricity": 0.0,
        "Inclination(deg)": 45.0,
        "Latitude(deg)": -12.035470112196393,
        "Longitude(deg)": 47.23146332158843,
        "Mean Anomaly(deg)": -163.02938859750105,
        "RAAN(deg)": 314.9994341083443,
        "Satellite Name": "Constellation 1 1398",
        "Satellite Number": 1398,
        "Semi-Major Axis(m)": 7083131.272910544,
        "Time(s)": 10
    },
    {
        "Altitude(m)": 705795.3369559924,
        "Argument of Periapsis(deg)": 0.0006594280686994618,
        "Eccentricity": 0.0,
        "Inclination(deg)": 45.0,
        "Latitude(deg)": -12.077657619823933,
        "Longitude(deg)": 47.27212893726636,
        "Mean Anomaly(deg)": -162.96868745725112,
        "RAAN(deg)": 314.9993775191788,
        "Satellite Name": "Constellation 1 1398",
        "Satellite Number": 1398,
        "Semi-Major Axis(m)": 7083131.272910544,
        "Time(s)": 11
    },
    {
        "Altitude(m)": 705806.1709513626,
        "Argument of Periapsis(deg)": 0.0007193760749448675,
        "Eccentricity": 0.0,
        "Inclination(deg)": 45.0,
        "Latitude(deg)": -12.119837702962569,
        "Longitude(deg)": 47.31280846560805,
        "Mean Anomaly(deg)": -162.90798631700125,
        "RAAN(deg)": 314.9993209300132,
        "Satellite Name": "Constellation 1 1398",
        "Satellite Number": 1398,
        "Semi-Major Axis(m)": 7083131.272910544,
        "Time(s)": 12
    },
    {
        "Altitude(m)": 705817.0201811973,
        "Argument of Periapsis(deg)": 0.000779324081190273,
        "Eccentricity": 0.0,
        "Inclination(deg)": 45.0,
        "Latitude(deg)": -12.16201033305923,
        "Longitude(deg)": 47.35350195885881,
        "Mean Anomaly(deg)": -162.8472851767513,
        "RAAN(deg)": 314.9992643408476,
        "Satellite Name": "Constellation 1 1398",
        "Satellite Number": 1398,
        "Semi-Major Axis(m)": 7083131.272910544,
        "Time(s)": 13
    },
    {
        "Altitude(m)": 705827.8846145323,
        "Argument of Periapsis(deg)": 0.0008392720874356787,
        "Eccentricity": 0.0,
        "Inclination(deg)": 45.0,
        "Latitude(deg)": -12.204175481534111,
        "Longitude(deg)": 47.39420946929016,
        "Mean Anomaly(deg)": -162.7865840365014,
        "RAAN(deg)": 314.99920775168204,
        "Satellite Name": "Constellation 1 1398",
        "Satellite Number": 1398,
        "Semi-Major Axis(m)": 7083131.272910544,
        "Time(s)": 14
    },
    {
        "Altitude(m)": 705838.7642203292,
        "Argument of Periapsis(deg)": 0.0008992200936810842,
        "Eccentricity": 0.0,
        "Inclination(deg)": 45.0,
        "Latitude(deg)": -12.246333119780896,
        "Longitude(deg)": 47.434930881103284,
        "Mean Anomaly(deg)": -162.72588289625156,
        "RAAN(deg)": 314.99915116251645,
        "Satellite Name": "Constellation 1 1398",
        "Satellite Number": 1398,
        "Semi-Major Axis(m)": 7083131.272910544,
        "Time(s)": 15
    },
    {
        "Altitude(m)": 705849.6589674798,
        "Argument of Periapsis(deg)": 0.0009591680999264898,
        "Eccentricity": 0.0,
        "Inclination(deg)": 45.0,
        "Latitude(deg)": -12.28848321916576,
        "Longitude(deg)": 47.47566658281663,
        "Mean Anomaly(deg)": -162.6651817560016,
        "RAAN(deg)": 314.99909457335093,
        "Satellite Name": "Constellation 1 1398",
        "Satellite Number": 1398,
        "Semi-Major Axis(m)": 7083131.272910544,
        "Time(s)": 16
    },
    {
        "Altitude(m)": 705860.568824806,
        "Argument of Periapsis(deg)": 0.0010191161061718953,
        "Eccentricity": 0.0,
        "Inclination(deg)": 45.0,
        "Latitude(deg)": -12.330625751028528,
        "Longitude(deg)": 47.51641645868418,
        "Mean Anomaly(deg)": -162.60448061575175,
        "RAAN(deg)": 314.9990379841853,
        "Satellite Name": "Constellation 1 1398",
        "Satellite Number": 1398,
        "Semi-Major Axis(m)": 7083131.272910544,
        "Time(s)": 17
    },
    {
        "Altitude(m)": 705871.4937610384,
        "Argument of Periapsis(deg)": 0.001079064112417301,
        "Eccentricity": 0.0,
        "Inclination(deg)": 45.0,
        "Latitude(deg)": -12.372760686681918,
        "Longitude(deg)": 47.557180561083854,
        "Mean Anomaly(deg)": -162.54377947550182,
        "RAAN(deg)": 314.99898139501977,
        "Satellite Name": "Constellation 1 1398",
        "Satellite Number": 1398,
        "Semi-Major Axis(m)": 7083131.272910544,
        "Time(s)": 18
    }
]